HAWK-C                  
1 43799U 18099AT  26068.67261865  .00009431  00000+0  35663-3 0  9994
2 43799  97.4027 122.6817 0040363 277.4052  82.2601 15.26407167398720
STARLINK-31733          
1 59486U 24071C   26068.12999226 -.00003366  00000+0 -11289-3 0  9991
2 59486  43.0014 342.5971 0000866 279.6373  80.4381 15.27568165108126
