[{"OBJECT_NAME":"HAWK-C","OBJECT_ID":"2018-099AT","EPOCH":"2026-03-09T16:08:34.251360","MEAN_MOTION":15.26407167,"ECCENTRICITY":0.00403625,"INCLINATION":97.4027,"RA_OF_ASC_NODE":122.6817,"ARG_OF_PERICENTER":277.4052,"MEAN_ANOMALY":82.2601,"EPHEMERIS_TYPE":0,"CLASSIFICATION_TYPE":"U","NORAD_CAT_ID":43799,"ELEMENT_SET_NO":999,"REV_AT_EPOCH":39872,"BSTAR":0.00035662773,"MEAN_MOTION_DOT":9.431e-5,"MEAN_MOTION_DDOT":0},{"OBJECT_NAME":"STARLINK-31733","OBJECT_ID":"2024-071C","EPOCH":"2026-03-09T03:07:11.331264","MEAN_MOTION":15.27568165,"ECCENTRICITY":8.666e-5,"INCLINATION":43.0014,"RA_OF_ASC_NODE":342.5971,"ARG_OF_PERICENTER":279.6373,"MEAN_ANOMALY":80.4381,"EPHEMERIS_TYPE":0,"CLASSIFICATION_TYPE":"U","NORAD_CAT_ID":59486,"ELEMENT_SET_NO":999,"REV_AT_EPOCH":10812,"BSTAR":-0.00011288663,"MEAN_MOTION_DOT":-3.366e-5,"MEAN_MOTION_DDOT":0}]
